CALSPHERE 1             
1 00900U 64063C   26263.17531861  .00000431  00000+0  42837-3 0  9993
2 00900  90.2179  73.9688 0026099   9.2904 109.6118 13.76708315 84492
CALSPHERE 2             
1 00902U 64063E   26262.94055013  .00000031  00000+0  34017-4 0  9997
2 00902  90.2290  78.0218 0017221 316.8762 200.2477 13.52906453869077
LCS 1                   
1 01361U 65034C   26263.19184036  .00000019  00000+0  14448-2 0  9992
2 01361  32.1441 311.4579 0011108  99.5534 260.6219  9.89310795219294
TEMPSAT 1               
1 01512U 65065E   26263.11351894  .00000049  00000+0  81190-4 0  9997
2 01512  90.0070 212.6153 0069301 343.7234  27.3106 13.33598779972701
CALSPHERE 4A            
1 01520U 65065H   26263.03818854  .00000070  00000+0  11630-3 0  9996
2 01520  89.8893 121.5283 0069001 194.5870 312.0989 13.36291672975370
OPS 5712 (P/L 160)      
1 02826U 67053A   26263.18610824  .00004117  00000+0  56982-3 0  9993
2 02826  69.9161 165.2448 0003848 269.0330  91.0377 14.78769283 80277
LES-5                   
1 02866U 67066E   26263.16469051 -.00000112  00000+0  00000+0 0  9991
2 02866   2.8384  93.6009 0052129 214.8063   6.0977  1.09426095132077
SURCAL 159              
1 02872U 67053F   26263.13762338  .00000030  00000+0  57054-4 0  9999
2 02872  69.9743 156.3658 0007837 331.9967  28.0718 13.99620997 23495
OPS 5712 (P/L 153)      
1 02874U 67053H   26263.00520031  .00000003  00000+0  40390-4 0  9994
2 02874  69.9718 272.0683 0004698  61.0302 299.1275 13.96839607 20032
RIGIDSPHERE 2 (LCS 4)   
1 05398U 71067E   26263.18156370  .00000349  00000+0  10766-3 0  9994
2 05398  87.6204 312.4428 0057429 277.8368  81.6314 14.37959703887538
OSCAR 7 (AO-7)          
1 07530U 74089B   26263.01476802 -.00000045  00000+0  98815-5 0  9995
2 07530 101.9920 277.2524 0011997 311.4967  75.2520 12.53699604372408
STARLETTE               
1 07646U 75010A   26263.01131149 -.00000144  00000+0  61063-7 0  9997
2 07646  49.8227  90.3072 0205607  16.3067 344.4315 13.82351658607651
LAGEOS 1                
1 08820U 76039A   26261.95030091  .00000003  00000+0  00000+0 0  9998
2 08820 109.8183 211.4244 0044610 282.1745 255.4351  6.38664882919120
PHASE 3B (AO-10)        
1 14129U 83058B   26263.04235856 -.00000060  00000+0  00000+0 0  9998
2 14129  25.9788 204.0605 5980330 141.6651 281.5604  2.05869937297448
UOSAT 2 (UO-11)         
1 14781U 84021B   26263.18935485  .00001052  00000+0  11210-3 0  9993
2 14781  97.8181 227.7740 0006408 221.8303 138.2426 14.91001415271285
AJISAI (EGS)            
1 16908U 86061A   26263.19435279 -.00000088  00000+0  68458-4 0  9995
2 16908  50.0079 215.2503 0011359  62.0631 257.8383 12.44517426492212
TDRS 3                  
1 19548U 88091B   26263.21407931 -.00000295  00000+0  00000+0 0  9994
2 19548  12.5319 340.3632 0038287 352.1344  54.9007  1.00272930126346
COSMOS 1989 (ETALON 1)  
1 19751U 89001C   26263.22323706  .00000034  00000+0  00000+0 0  9990
2 19751  65.0062  68.9487 0023421 217.3889 314.2906  2.13156097293391
COSMOS 2024 (ETALON 2)  
1 20026U 89039C   26262.37526569 -.00000022  00000+0  00000+0 0  9993
2 20026  64.8728 307.2858 0020884 212.1962 202.8066  2.13204769290510
FLTSATCOM 8 (USA 46)    
1 20253U 89077A   26262.76499860 -.00000364  00000+0  00000+0 0  9992
2 20253  12.3972 350.5815 0003042 228.5677 180.6861  1.00270693261514
LUSAT (LO-19)           
1 20442U 90005G   26263.06653483  .00000040  00000+0  30961-4 0  9996
2 20442  98.8820 287.4719 0010507 289.6266  70.3784 14.34144701915990
HST                     
1 20580U 90037B   26263.03786471  .00004678  00000+0  14109-3 0  9991
2 20580  28.4728 151.8229 0001904 113.7893 246.2903 15.31699045803125
TDRS 5                  
1 21639U 91054B   26259.38305910  .00000084  00000+0  00000+0 0  9993
2 21639  14.0607 353.0930 0009292 251.3156  81.4722  1.00281594128622
TDRS 6                  
1 22314U 93003B   26263.21402396 -.00000292  00000+0  00000+0 0  9995
2 22314  14.1861 356.3413 0009678 202.5339 191.5222  1.00273048123366
SCD 1                   
1 22490U 93009B   26262.36096833  .00000310  00000+0  34023-4 0  9993
2 22490  24.9708 346.0942 0042117  54.9182 357.3069 14.46149921774766
UFO 2 (USA 95)          
1 22787U 93056A   26260.94338655  .00000124  00000+0  00000+0 0  9993
2 22787  11.9282   3.0270 0001952 242.9212 119.1892  1.00272802119488
STELLA                  
1 22824U 93061B   26263.16296169 -.00000052  00000+0 -27346-5 0  9991
2 22824  98.7627 327.7091 0005745 329.3679  61.7613 14.27472482718324
EYESAT A (AO-27)        
1 22825U 93061C   26263.16552080  .00000029  00000+0  28062-4 0  9996
2 22825  98.6789 330.5008 0008483 174.2728 185.8553 14.30962074720584
ITAMSAT (IO-26)         
1 22826U 93061D   26263.11656110  .00000033  00000+0  29246-4 0  9991
2 22826  98.6736 330.3794 0009321 158.3201 201.8378 14.31391062720890
RADIO ROSTO (RS15)      
1 23439U 94085A   26263.19065186 -.00000041  00000+0  32523-4 0  9996
2 23439  64.8154 149.5686 0159270 346.8269  12.8520 11.27583932306617
UFO 4 (USA 108)         
1 23467U 95003A   26262.63537355 -.00000021  00000+0  00000+0 0  9996
2 23467   9.7028  12.7651 0003008 165.3124 221.5410  1.00269973115903
TDRS 7                  
1 23613U 95035B   26262.87908101 -.00000238  00000+0  00000+0 0  9991
2 23613  13.2987 347.5288 0010789  98.6970 318.2815  1.00272064114206
USA 115 (MILSTAR-1 2)   
1 23712U 95060A   26262.91943124 -.00000201  00000+0  00000+0 0  9998
2 23712  14.1068   3.0284 0006264 158.0253  78.7956  1.00275330 33836
POLAR                   
1 23802U 96013A   26261.23665666  .00000151  00000+0  00000+0 0  9996
2 23802  79.9864 225.9326 6565887 205.8914  96.3393  1.29845729146060
INMARSAT 3-F1           
1 23839U 96020A   26262.65850685 -.00000102  00000+0  00000+0 0  9995
2 23839  10.7950  45.7345 0007081 155.0923 203.1654  1.00003580111199
USA 119                 
1 23893U 96029A   26263.10626720  .00000604  00000+0  11370-3 0  9998
2 23893  63.3176 303.5964 0855982  50.6880 316.6919 13.46509053118053
JAS-2 (FO-29)           
1 24278U 96046B   26262.79767312  .00000004  00000+0  40673-4 0  9995
2 24278  98.5165  98.6980 0349339 210.7684 147.2558 13.53278316485961
INMARSAT 3-F2           
1 24307U 96053A   26261.50587963  .00000113  00000+0  00000+0 0  9992
2 24307  10.0638  52.9607 0005694 123.2997  56.2790  0.99979168109852
INMARSAT 3-F3           
1 24674U 96070A   26261.27161611 -.00000290  00000+0  00000+0 0  9997
2 24674  10.5160  48.7296 0006072 155.1374 200.7763  0.99991342108836
NAVSTAR 43 (USA 132)    
1 24876U 97035A   26262.43332015  .00000018  00000+0  00000+0 0  9997
2 24876  56.0492  94.8895 0106019  58.9668 302.1365  2.00564524213843
FORTE                   
1 24920U 97047A   26263.15070103  .00000088  00000+0  58767-4 0  9992
2 24920  69.9535 159.5198 0020521 155.5347 204.6754 14.27975783512249
USA 134                 
1 25019U 97065A   26262.35696691 -.00000063  00000+0  00000+0 0  9995
2 25019  12.8956  20.9959 0002669 267.7934  85.7581  1.00269773 33897
ORBCOMM FM06            
1 25118U 97084G   26262.76029265  .00000694  00000+0  22523-3 0  9995
2 25118  45.0147 317.3603 0002039 260.2191 192.6000 14.47755185508095
INMARSAT 3-F5           
1 25153U 98006B   26262.34021955 -.00000292  00000+0  00000+0 0  9998
2 25153   9.8989  52.2910 0004479 124.7993 249.6909  1.00273207104847
ORBCOMM FM04            
1 25159U 98007C   26263.21651523  .00000520  00000+0  22302-3 0  9998
2 25159 107.9603   5.0039 0040194 162.8880 197.3625 14.35870099490235
CELESTIS-02 & TAURUS R/B
1 25160U 98007D   26263.20383428 -.00000041  00000+0  38915-4 0  9992
2 25160 108.0050 164.1975 0063039 329.4936 185.0447 14.22506292484020
TECHSAT 1B (GO-32)      
1 25397U 98043D   26262.96213589  .00000023  00000+0  29983-4 0  9990
2 25397  99.0159 258.1495 0000764   0.4741 359.6438 14.24443408464824
WESTPAC                 
1 25398U 98043E   26262.69482041 -.00000018  00000+0  12817-4 0  9995
2 25398  99.0243 251.0248 0000705 350.7840   9.3324 14.23057716464389
ORBCOMM FM19            
1 25415U 98046C   26263.10316898  .00000538  00000+0  21570-3 0  9992
2 25415  44.9930 152.3342 0004261  51.4192  94.0492 14.39643191470452
ORBCOMM FM20            
1 25416U 98046D   26262.41949972  .00000391  00000+0  17420-3 0  9997
2 25416  44.9932 164.5597 0001819  14.7774 345.3127 14.38175637470356
ORBCOMM FM27            
1 25481U 98053G   26263.00828492  .00000543  00000+0  21879-3 0  9998
2 25481  45.0044 244.9288 0002764 306.5040  53.5554 14.39282816463894
SCD 2                   
1 25504U 98060A   26263.02710416  .00000340  00000+0  43998-4 0  9992
2 25504  24.9943 207.2699 0016891  46.2250  31.3430 14.45554228474063
ISS (ZARYA)             
1 25544U 98067A   26263.14255447  .00007470  00000+0  14267-3 0  9991
2 25544  51.6307 190.1401 0004820 160.6694 199.4478 15.49188396586472
SWAS                    
1 25560U 98071A   26263.21678850  .00002267  00000+0  14517-3 0  9996
2 25560  69.8974 342.3604 0002886 124.8031 235.3405 15.10124677511618
ISS (UNITY)             
1 25575U 98069F   26263.14255447  .00007470  00000+0  14267-3 0  9997
2 25575  51.6307 190.1401 0004820 160.6694 199.4478 15.49188396586757
DLR-TUBSAT              
1 25757U 99029B   26262.81034425  .00000044  00000+0  22726-4 0  9990
2 25757  98.6773 261.4635 0015232  64.6813 295.5957 14.52445628446980
CXO                     
1 25867U 99040B   26264.57838639  .00000964  00000+0  00000+0 0  9996
2 25867  57.4713 114.1840 7687429 309.3021   0.4302  0.37796833 17684
ABS-6                   
1 25924U 99053A   26262.88121853  .00000000  00000+0  00000+0 0  9990
2 25924   0.0272 136.9414 0001341  61.4663 276.6272  1.00269943 98797
NAVSTAR 46 (USA 145)    
1 25933U 99055A   26263.03501536 -.00000017  00000+0  00000+0 0  9999
2 25933  51.3778 291.3092 0104584 180.3861 186.3140  2.00557610197488
UFO 10 (USA 146)        
1 25967U 99063A   26263.13028049 -.00000187  00000+0  00000+0 0  9997
2 25967   9.9269  26.6930 0004217 195.1726 161.1531  1.00275408 98290
ORBCOMM FM32            
1 25982U 99065C   26262.13286717  .00000393  00000+0  17791-3 0  9990
2 25982  45.0145  88.5159 0006430 161.7222 198.3858 14.37243257400607
XMM-NEWTON              
1 25989U 99066A   26265.08847595  .00000159  00000+0  00000+0 0  9993
2 25989  63.9806 281.7304 4648592  63.1557   0.0828  0.50124859 23497
TERRA                   
1 25994U 99068A   26263.13013920  .00000189  00000+0  47342-4 0  9990
2 25994  97.9361 308.8685 0001019 315.3518  67.2112 14.61162595423470
ASIASTAR                
1 26107U 00016A   26262.89367970 -.00000335  00000+0  00000+0 0  9990
2 26107   9.3459  57.1109 0003891 123.0568 245.3827  1.00272998 96876
IMAGE                   
1 26113U 00017A   26258.39615380  .00000095  00000+0  00000+0 0  9991
2 26113  94.2859 316.5027 7374933 277.7380  11.9141  1.68668625163023
USA 149 (DSP 20)        
1 26356U 00024A   26261.55518999 -.00000249  00000+0  00000+0 0  9990
2 26356  13.2681  11.2449 0012013  40.5039 265.0551  0.99196463 33854
TDRS 8                  
1 26388U 00034A   26262.87010553 -.00000194  00000+0  00000+0 0  9994
2 26388  12.8315  30.4998 0001137 121.7220 244.5790  1.00269952 96133
ISS (ZVEZDA)            
1 26400U 00037A   26263.14255447  .00007470  00000+0  14267-3 0  9993
2 26400  51.6307 190.1401 0004820 160.6694 199.4478 15.49188396586878
NAVSTAR 48 (USA 151)    
1 26407U 00040A   26262.83702515  .00000003  00000+0  00000+0 0  9993
2 26407  54.8377 211.4058 0117953 303.9320 280.2100  2.00558455191842
NSS-11                  
1 26554U 00059A   26263.09838700  .00000022  00000+0  00000+0 0  9992
2 26554   2.3643  80.1538 0003028 107.9860  22.2929  1.00272865 42240
USA 153                 
1 26575U 00065A   26262.73685543 -.00000325  00000+0  00000+0 0  9994
2 26575  11.7861  34.6113 0001580 137.9286 225.7661  1.00268465 33882
AMC-6                   
1 26580U 00067A   26263.22307778  .00000084  00000+0  00000+0 0  9999
2 26580   0.3889  83.5730 0004340 104.1819 116.6420  1.00272619 94845
NAVSTAR 49 (USA 154)    
1 26605U 00071A   26262.63440652  .00000019  00000+0  00000+0 0  9993
2 26605  55.6834  91.2244 0174558 267.0614  97.0546  2.00561456189413
ISS (DESTINY)           
1 26700U 01006B   26263.14255447  .00007470  00000+0  14267-3 0  9993
2 26700  51.6307 190.1401 0004820 160.6694 199.4478 15.49188396586916
USA 157 (MILSTAR-2 2)   
1 26715U 01009A   26262.58942905  .00000110  00000+0  00000+0 0  9991
2 26715  11.6467  19.1549 0042747 179.4642 222.1082  1.00268153 33890
BSAT-2A                 
1 26720U 01011B   26262.90158529 -.00000009  00000+0  00000+0 0  9995
2 26720  10.9311  46.5903 0006657 186.6908 352.2508  0.99175488 92910
OMNI-M1                 
1 26857U 01026A   26262.50275913 -.00000003  00000+0  00000+0 0  9999
2 26857  44.8075 223.5277 0014403  69.3116 290.8568  3.92403132209279
INTELSAT 902 (IS-902)   
1 26900U 01039A   26262.91103198 -.00000285  00000+0  00000+0 0  9994
2 26900   6.3499  70.5824 0004036 109.1468  96.9469  1.00272401 91648
PCSAT (NO-44)           
1 26931U 01043C   26263.21788789  .00000036  00000+0  44436-4 0  9991
2 26931  67.0532 358.4725 0005840 273.0140  87.0293 14.31985037304056
PROBA-1                 
1 26958U 01049B   26263.17654913  .00002090  00000+0  13649-3 0  9995
2 26958  97.9628 275.0624 0054852 160.1417 200.1963 15.07819267357937
TIMED                   
1 26998U 01055B   26263.14146050  .00000782  00000+0  74275-4 0  9990
2 26998  74.0679  43.7989 0001720 231.8310 128.2720 14.95464106345012
MAROC-TUBSAT            
1 27004U 01056D   26263.01504132 -.00000025  00000+0  24372-4 0  9999
2 27004  99.8136  81.6981 0019055 259.9462 252.5485 13.70265688239170
COSMOS 2385             
1 27056U 01058B   26263.23301852  .00000061  00000+0  29035-3 0  9995
2 27056  82.5404 159.0874 0007060  26.7214 102.3395 12.60566892137755
COSMOS 2386             
1 27057U 01058C   26262.14368922  .00000008  00000+0 -14226-4 0  9995
2 27057  82.5470 154.0425 0000826  78.8792 281.2391 12.61617606138359
USA 164 (MILSTAR-2 3)   
1 27168U 02001A   26261.00062149  .00000096  00000+0  00000+0 0  9999
2 27168  11.2914  21.3209 0098317  10.2834 344.4884  1.00270546 33889
INTELSAT 904 (IS-904)   
1 27380U 02007A   26263.09707345 -.00000227  00000+0  00000+0 0  9993
2 27380   7.1508  68.0045 0003115 109.7065 184.7743  1.00272311 52710
AQUA                    
1 27424U 02022A   26263.18009868  .00000461  00000+0  10136-3 0  9998
2 27424  98.4401 234.4168 0001472  65.2313  25.6303 14.62206868297155
DIRECTV 5 (TEMPO 1)     
1 27426U 02023A   26262.18711733 -.00000061  00000+0  00000+0 0  9993
2 27426   5.1114  74.0904 0003162 103.9985 137.2836  1.00272066 89063
INTELSAT 905 (IS-905)   
1 27438U 02027A   26263.15537977  .00000092  00000+0  00000+0 0  9997
2 27438   6.9856  68.6133 0003188 137.3941  71.7980  1.00272344 52311
GALAXY 3C (G-3C)        
1 27445U 02030A   26263.16758823 -.00000156  00000+0  00000+0 0  9997
2 27445   3.9800  76.7745 0001624  42.3149 205.4759  1.00272506 47440
COSMOS 2390             
1 27464U 02036A   26263.13702078 -.00000011  00000+0 -15094-3 0  9996
2 27464  82.4803 285.5848 0026482  52.5370 307.8113 12.44624832 99483
COSMOS 2391             
1 27465U 02036B   26263.12909012 -.00000008  00000+0 -12676-3 0  9992
2 27465  82.4793 282.0815 0027233  46.6391 313.6953 12.44947897 99666
INTELSAT 906 (IS-906)   
1 27513U 02041A   26263.07621940  .00000011  00000+0  00000+0 0  9993
2 27513   6.0374  71.7083 0003196 125.3218 253.5434  1.00271106 87983
LATINSAT B              
1 27606U 02058B   26262.87641528  .00000332  00000+0  64463-4 0  9999
2 27606  64.5553 320.4793 0085429 251.4800 107.7006 14.77126711276088
SAUDISAT 1C (SO-50)     
1 27607U 02058C   26262.21781256  .00000644  00000+0  93607-4 0  9999
2 27607  64.5523 198.0161 0071734 245.1928 114.1705 14.83218520278402
LATINSAT A              
1 27612U 02058H   26263.07583431  .00000624  00000+0  88112-4 0  9998
2 27612  64.5556  26.9287 0047150 233.5800 126.0956 14.85610137281728
NIMIQ 2                 
1 27632U 02062A   26261.99628206 -.00000071  00000+0  00000+0 0  9996
2 27632   9.6579  55.8722 0005775 116.9068  74.5898  1.00273398 45128
CORIOLIS                
1 27640U 03001A   26262.97178205  .00000040  00000+0  39631-4 0  9999
2 27640  98.7172 268.4277 0013038 302.7517  57.2402 14.19967039227674
SORCE                   
1 27651U 03004A   26262.89843926  .00001793  00000+0  13758-3 0  9991
2 27651  39.9905  81.1263 0017282   7.5846 352.5207 15.04128225286166
NAVSTAR 51 (USA 166)    
1 27663U 03005A   26260.85852075  .00000017  00000+0  00000+0 0  9994
2 27663  54.8679 211.2898 0150561  53.6734 317.9316  2.00555608173172
USA 167                 
1 27691U 03008A   26262.57702259  .00000005  00000+0  00000+0 0  9994
2 27691  11.1451  42.5337 0002903 287.2648 114.3572  1.00273715  7720
NAVSTAR 52 (USA 168)    
1 27704U 03010A   26262.25503685 -.00000078  00000+0  00000+0 0  9990
2 27704  54.7489 321.7127 0006739 254.0312 105.8607  1.91455025171721
USA 169 (MILSTAR-2 4)   
1 27711U 03012A   26262.66593757 -.00000195  00000+0  00000+0 0  9994
2 27711  12.4778  28.1950 0096602  12.3575 349.9816  1.00271201 33909
ASIASAT 4               
1 27718U 03014A   26262.87887852 -.00000224  00000+0  00000+0 0  9991
2 27718   4.9400  74.5063 0002722 108.4457 279.7944  1.00272823 46255
HELLAS-SAT 2            
1 27811U 03020A   26262.27748363 -.00000086  00000+0  00000+0 0  9995
2 27811   7.5821  66.7203 0007848 141.2434 240.1702  1.00272908 43792
THURAYA-2               
1 27825U 03026A   26262.50197031  .00000124  00000+0  00000+0 0  9994
2 27825   8.9843  31.5004 0000383  73.7419 117.8922  1.00272665 85299
OPTUS C1                
1 27831U 03028B   26262.78410319 -.00000153  00000+0  00000+0 0  9993
2 27831   7.1200  68.2228 0005490 107.0437 261.4749  1.00272788 54019
MOST                    
1 27843U 03031D   26262.96473720  .00000029  00000+0  33243-4 0  9996
2 27843  98.7086 269.3835 0009513 345.4004  14.6897 14.21338419204173
CUTE-1 (CO-55)          
1 27844U 03031E   26262.30825485  .00000177  00000+0  95427-4 0  9990
2 27844  98.6773 269.7000 0008369 273.0739  86.9482 14.24383016205071
CUBESAT XI-IV (CO-57)   
1 27848U 03031J   26262.97670074  .00000139  00000+0  80276-4 0  9993
2 27848  98.6806 269.9965 0008369 292.3957  67.6334 14.23661736204865
SCISAT 1                
1 27858U 03036A   26262.89903458  .00000295  00000+0  42268-4 0  9997
2 27858  73.9324 343.1469 0006939  14.1618 345.9752 14.81541737245476
COSMOS 2400             
1 27868U 03037A   26263.19624866 -.00000042  00000+0 -36068-3 0  9998
2 27868  82.4659 270.2709 0020902 204.6833 155.3250 12.45191060 49365
COSMOS 2401             
1 27869U 03037B   26263.13482243 -.00000020  00000+0 -20859-3 0  9991
2 27869  82.4650 266.6458 0021719 199.9326 160.0909 12.45504214 49595
USA 170                 
1 27875U 03040A   26262.73180696  .00000125  00000+0  00000+0 0  9990
2 27875  10.6966  47.0219 0001624 161.2423  77.9227  1.00272734 33943
MOZHAETS 4 (RS22)       
1 27939U 03042A   26263.21982360  .00000295  00000+0  53533-4 0  9997
2 27939  98.3485  90.2931 0010780 333.7987 137.9700 14.73604688229545
LARETS                  
1 27944U 03042F   26263.19348411  .00000009  00000+0  11393-4 0  9994
2 27944  98.4268  67.4567 0013505  99.1715 261.1015 14.63881912227264
GALAXY 13 (HORIZONS-1)  
1 27954U 03044A   26263.21896346  .00000129  00000+0  00000+0 0  9996
2 27954   1.6582  82.5018 0001663 106.0605  99.3771  1.00271500 47529
DMSP 5D-3 F16 (USA 172) 
1 28054U 03048A   26263.16727037  .00000016  00000+0  31996-4 0  9994
2 28054  98.9861 287.6098 0006170 232.8767 207.2468 14.14491252182914
CHUANGXIN 1 (CX-1)      
1 28058U 03049B   26263.14908562  .00000116  00000+0  43004-4 0  9995
2 28058  98.4948 162.8509 0011277 253.5824 106.4130 14.48622025210029
YAMAL 202               
1 28089U 03053A   26262.73951789 -.00000082  00000+0  00000+0 0  9994
2 28089   6.5754  69.7464 0004756 129.6158 229.0818  1.00271969 83642
UFO 11 (USA 174)        
1 28117U 03057A   26262.91136111 -.00000103  00000+0  00000+0 0  9998
2 28117   9.0345  33.3128 0003855 160.4581 208.5500  1.00271463 83407
NAVSTAR 53 (USA 175)    
1 28129U 03058A   26261.98473460 -.00000091  00000+0  00000+0 0  9995
2 28129  55.0787  19.8030 0000965 279.5326  80.4676  1.92678577166276
USA 176 (DSP 22)        
1 28158U 04004A   26261.26676277 -.00000101  00000+0  00000+0 0  9993
2 28158  12.1826  25.3651 0014484 279.6377  73.3330  0.98862135 33861
ABS-4 (MOBISAT-1)       
1 28184U 04007A   26262.71989323  .00000035  00000+0  00000+0 0  9990
2 28184   6.2744  70.8124 0005296 115.6437 132.3989  1.00275822 53289
NAVSTAR 54 (USA 177)    
1 28190U 04009A   26263.13051406  .00000023  00000+0  00000+0 0  9995
2 28190  54.7573 271.8427 0118151 176.6731 189.1111  2.00573600164851
SHIYAN-1 (SY-1)         
1 28220U 04012A   26263.16950269  .00010065  00000+0  28959-3 0  9995
2 28220  97.8632 347.5403 0005949  52.6785 307.4998 15.35987592225662
INTELSAT 10-02          
1 28358U 04022A   26262.63569079 -.00000015  00000+0  00000+0 0  9992
2 28358   0.0353 257.6156 0000096 220.8627 107.9179  1.00271743 81506
NAVSTAR 55 (USA 178)    
1 28361U 04023A   26260.88090086 -.00000006  00000+0  00000+0 0  9999
2 28361  54.9330  82.9684 0158724 304.2584  57.2172  2.00561299162902
APRIZESAT 2             
1 28366U 04025A   26262.91219899  .00000077  00000+0  37520-4 0  9996
2 28366  98.1130  63.5905 0104734 324.7459  34.6831 14.38068300165257
SAUDICOMSAT 1           
1 28369U 04025D   26263.02179067  .00000188  00000+0  54181-4 0  9999
2 28369  98.5791 275.7253 0033336  92.9514 267.5498 14.55528172177925
SAUDICOMSAT 2           
1 28370U 04025E   26263.00754102  .00000148  00000+0  50139-4 0  9993
2 28370  98.6649 277.9383 0055030 333.4127  26.4246 14.50026441173843
SAUDISAT 2              
1 28371U 04025F   26262.81875761  .00000152  00000+0  44885-4 0  9993
2 28371  98.5570 265.2755 0024873   8.9861 351.1776 14.56727729179529
APRIZESAT 1             
1 28372U 04025G   26262.30158772  .00000120  00000+0  41601-4 0  9992
2 28372  98.6322 275.6000 0043656 228.1351 131.6114 14.51819093175562
AURA                    
1 28376U 04026A   26263.15729877  .00000471  00000+0  10488-3 0  9998
2 28376  98.3524 220.4501 0001422  68.1750 291.9602 14.61445755180087
ANIK F2                 
1 28378U 04027A   26263.16281126 -.00000053  00000+0  00000+0 0  9994
2 28378   3.5256  78.1855 0003073  84.4401 143.9588  1.00272697 42210
COSMOS 2407             
1 28380U 04028A   26263.21686950  .00000045  00000+0  30790-4 0  9992
2 28380  82.9650   4.4436 0038816 348.5813  21.4678 13.76340660112954
SHIJIAN-6 01A (SJ-6 01A)
1 28413U 04035A   26263.04986150  .00004357  00000+0  21063-3 0  9995
2 28413  97.5824 290.4619 0006701 152.8243 207.3343 15.19140942201860
SHIJIAN-6 01B (SJ-6 01B)
1 28414U 04035B   26263.22501897  .00001404  00000+0  98214-4 0  9990
2 28414  97.6052 279.9088 0004971 154.0936 206.0541 15.06880990201133
COSMOS 2408             
1 28419U 04037A   26263.18373800  .00000011  00000+0  93663-5 0  9990
2 28419  82.4797 266.3457 0017113  62.2665 298.0150 12.45681897999739
COSMOS 2409             
1 28420U 04037B   26263.17114995  .00000008  00000+0 -16083-4 0  9996
2 28420  82.4799 269.6226 0014812  73.2301 287.0404 12.45324383999379
AMC-15                  
1 28446U 04041A   26263.16461367 -.00000093  00000+0  00000+0 0  9997
2 28446   0.0190 283.3213 0001980 235.0503 154.9181  1.00272572 80254
JB-3 3 (ZY 2C)          
1 28470U 04044A   26263.14680066  .00002576  00000+0  12159-3 0  9993
2 28470  97.2891  53.3897 0031381 247.0095 112.7829 15.19903073202201
NAVSTAR 56 (USA 180)    
1 28474U 04045A   26263.10898169 -.00000067  00000+0  00000+0 0  9991
2 28474  55.0741 321.0674 0172362 318.7580  95.4273  2.00560172160331
SWIFT                   
1 28485U 04047A   26263.00798419  .00160535  00000+0  71632-3 0  9990
2 28485  20.5501 167.4765 0003366 274.1790  85.8273 15.82419570201824
NANOSAT-1               
1 28493U 04049B   26262.60260794  .00000627  00000+0  89539-4 0  9997
2 28493  98.2414  41.6566 0003939   8.2830 351.8445 14.80314856169410
COSMOS 2414             
1 28521U 05002A   26262.54339725  .00000046  00000+0  25349-4 0  9997
2 28521  82.9529 332.2793 0041323  61.5028 299.0287 13.87934379 96904
NSS-10                  
1 28526U 05003A   26262.99836527 -.00000253  00000+0  00000+0 0  9997
2 28526   6.6816  69.2638 0003127  99.0188 152.6041  1.00272674 54102
INMARSAT 4-F1           
1 28628U 05009A   26262.73610267  .00000031  00000+0  00000+0 0  9992
2 28628   5.2992  42.8137 0002703 138.2344 260.7231  1.00272486 78621
IRS-P5 (CARTOSAT-1)     
1 28649U 05017A   26262.29199963  .00000731  00000+0  78799-4 0  9992
2 28649  97.5291 281.0901 0002628  97.6377 262.5141 14.91246654157840
DIRECTV 8               
1 28659U 05019A   26263.16079375 -.00000003  00000+0  00000+0 0  9994
2 28659   0.0143 117.7182 0002971  54.7666 125.4169  1.00272877 78029
GALAXY 28 (G-28)        
1 28702U 05022A   26262.98686566 -.00000203  00000+0  00000+0 0  9994
2 28702   3.5364  77.6947 0001780 105.0387 144.3355  1.00270279 52923
SJ-7                    
1 28737U 05024A   26262.81910291  .00004804  00000+0  20854-3 0  9994
2 28737  97.7233 295.5228 0016640  66.0887 294.2090 15.22713094162420
THAICOM 4               
1 28786U 05028A   26262.86313319 -.00000366  00000+0  00000+0 0  9992
2 28786   0.4829  84.5087 0000484  43.7738 300.7044  1.00271710 53191
REIMEI (INDEX)          
1 28810U 05031B   26262.60714459  .00003110  00000+0  18623-3 0  9999
2 28810  98.0253  31.1833 0019922 147.9013 212.3433 15.11674242145253
ANIK F1R                
1 28868U 05036A   26261.97310895 -.00000079  00000+0  00000+0 0  9990
2 28868   4.5464  75.3601 0002627  63.5174 102.0499  1.00272966 47393
NAVSTAR 57 (USA 183)    
1 28874U 05038A   26263.09202426  .00000026  00000+0  00000+0 0  9995
2 28874  54.8075 269.3390 0128765 297.6760  69.7698  2.00559277153740
SYRACUSE 3A             
1 28885U 05041B   26254.51939881  .00000114  00000+0  00000+0 0  9998
2 28885   4.8548  74.7263 0002457 106.5771  42.9291  1.00275934 76614
BEIJING 1               
1 28890U 05043A   26263.18115350  .00000160  00000+0  40272-4 0  9997
2 28890  98.3050  36.9962 0014390 349.9334  10.1577 14.63578636114546
SINAH 1                 
1 28893U 05043D   26263.18055615  .00000175  00000+0  42595-4 0  9993
2 28893  98.2995  38.1342 0013973 343.8658  16.2097 14.64211334114421
CUBESAT XI-V            
1 28895U 05043F   26263.18061347  .00000826  00000+0  13738-3 0  9993
2 28895  98.3108  60.8821 0012770 263.6618  96.3135 14.72835202115735
INMARSAT 4-F2           
1 28899U 05044A   26263.16321397 -.00000261  00000+0  00000+0 0  9998
2 28899   5.2186  43.7187 0002421 136.5674  21.0528  1.00272513 76474
COSMOS 2416 (RODNIK-S 1)
1 28908U 05048A   26262.93114285  .00000029  00000+0  11557-3 0  9997
2 28908  82.4640 247.0579 0007221 327.2301  59.7996 12.55603265950797
METEOSAT-9 (MSG-2)      
1 28912U 05049B   26262.57364397  .00000122  00000+0  00000+0 0  9995
2 28912   9.5708  53.2063 0001874 351.9658 205.6064  1.00277585  7947
EUTELSAT 174A           
1 28924U 05052A   26262.74492458  .00000007  00000+0  00000+0 0  9993
2 28924   4.4515  75.3028 0005999 101.9972 263.5456  1.00274755 53282
ECHOSTAR 10             
1 28935U 06003A   26263.18058044 -.00000060  00000+0  00000+0 0  9990
2 28935   0.0394 342.5867 0002650 145.5123 185.8182  1.00271275 75419
SPAINSAT                
1 28945U 06007A   26263.08669125 -.00000221  00000+0  00000+0 0  9991
2 28945   0.8014  84.8236 0004874  97.3917 177.7947  1.00271816 75160
JCSAT-5A                
1 29045U 06010A   26262.86225286 -.00000332  00000+0  00000+0 0  9991
2 29045   1.3457  82.9448 0001567  51.3789 306.9204  1.00271100 74714
ASTRA 1KR               
1 29055U 06012A   26263.06729269  .00000115  00000+0  00000+0 0  9995
2 29055   0.7117  82.6208 0003530  93.1586 226.4142  1.00271246 46642
RESURS-DK 1             
1 29228U 06021A   26263.14777596  .00001429  00000+0  85642-4 0  9991
2 29228  69.9299  93.6741 0005132 211.0363 149.0501 15.13527039116943
GALAXY 16 (G-16)        
1 29236U 06023A   26263.16601683 -.00000131  00000+0  00000+0 0  9997
2 29236   0.0130 163.6430 0002694  19.4161 136.7813  1.00271592 73921
ARIRANG-2 (KOMPSAT-2)   
1 29268U 06031A   26263.19380384  .00000019  00000+0  12073-4 0  9998
2 29268  97.8343  83.0734 0015383 128.2238 351.7752 14.64706081 75384
EUTELSAT 33F            
1 29270U 06032A   26263.14137388  .00000152  00000+0  00000+0 0  9991
2 29270   1.8996  81.0405 0003365  90.8429 271.1497  1.00271392 48268
JCSAT-3A                
1 29272U 06033A   26262.94630549 -.00000349  00000+0  00000+0 0  9997
2 29272   0.0286 269.9253 0002403 270.3806 287.2245  1.00271647 48696
KOREASAT 5 (MUGUNGWHA 5)
1 29349U 06034A   26262.87211850 -.00000362  00000+0  00000+0 0  9990
2 29349   2.0212  81.6539 0001840 144.2328 199.9340  1.00272696 42267
HINODE (SOLAR-B)        
1 29479U 06041A   26262.88519139  .00000339  00000+0  66585-4 0  9992
2 29479  98.0550 277.6475 0017156 352.2776   7.8163 14.68724446 68779
NAVSTAR 58 (USA 190)    
1 29486U 06042A   26262.47493903 -.00000020  00000+0  00000+0 0  9999
2 29486  54.7158 147.5934 0108964  57.3279 124.8096  2.00565127146284
DIRECTV 9S              
1 29494U 06043A   26262.81621824 -.00000082  00000+0  00000+0 0  9990
2 29494   2.6592  79.6560 0006590 194.1188 210.0421  0.99097545 52330
OPTUS D1                
1 29495U 06043B   26262.95107218 -.00000186  00000+0  00000+0 0  9997
2 29495   3.2715  78.4081 0003647  93.6037 321.2243  1.00272842 73075
SHIJIAN-6 02A (SJ-6 02A)
1 29505U 06046A   26263.18153527  .00003945  00000+0  19832-3 0  9994
2 29505  97.6287 304.9808 0003636 145.4780 214.6689 15.17846825 86671
SHIJIAN-6 02B (SJ-6 02B)
1 29506U 06046B   26263.18053815  .00000479  00000+0  41627-4 0  9991
2 29506  97.6975 291.5796 0015944 110.2481 250.0459 15.01483111 84996
DMSP 5D-3 F17 (USA 191) 
1 29522U 06050A   26263.20530147  .00000092  00000+0  69999-4 0  9998
2 29522  98.7428 267.8514 0010792 139.7583 220.4392 14.15008827 25867
BADR-4                  
1 29526U 06051A   26263.14163388  .00000152  00000+0  00000+0 0  9995
2 29526   2.2427  79.9552 0004893  98.1072 266.4624  1.00274029 52227
NAVSTAR 59 (USA 192)    
1 29601U 06052A   26262.15238766  .00000007  00000+0  00000+0 0  9992
2 29601  54.9225 210.2844 0085633  91.1420 269.8263  2.00563302145298
WILDBLUE-1              
1 29643U 06054A   26263.06729269 -.00000054  00000+0  00000+0 0  9997
2 29643   3.0415  79.2305 0004830  95.9185 226.9597  0.99178160 54737
LAPAN-TUBSAT            
1 29709U 07001A   26263.19815208  .00000014  00000+0  82105-5 0  9993
2 29709  98.1413 264.6000 0010826 233.5104 126.5114 14.86029771 65262
THEMIS A                
1 30580U 07004A   26258.29237513 -.00000463  00000+0  00000+0 0  9994
2 30580   9.3149 101.7950 8334487 216.9749  37.5186  0.87844123 42072
SKYNET 5A               
1 30794U 07007B   26262.93980545 -.00000274  00000+0  00000+0 0  9990
2 30794   5.5356  72.5353 0003486 117.2477 242.6210  1.00270903 71641
THEMIS D                
1 30797U 07004D   26262.00898911 -.00000481  00000+0  00000+0 0  9993
2 30797   8.2353  74.8982 8304765 246.4572   9.5625  0.87844503 41898
THEMIS E                
1 30798U 07004E   26262.41322325 -.00000522  00000+0  00000+0 0  9996
2 30798   7.1241  90.9892 8417278 234.0701  25.4178  0.87839719 66758
ANIK F3                 
1 31102U 07009A   26263.16285435 -.00000005  00000+0  00000+0 0  9990
2 31102   1.4361  82.5572 0002745  83.0598 133.3886  1.00271607 47517
HAIYANG-1B              
1 31113U 07010A   26263.16552230  .00000055  00000+0  36774-4 0  9990
2 31113  98.3617 241.3775 0012275 281.6911  78.2895 14.31046463 14229
SAUDISAT 3              
1 31118U 07012B   26263.12007934  .00000165  00000+0  34924-4 0  9996
2 31118  98.1553 213.6256 0013332 287.5865  72.3885 14.71472583 41702
SAUDICOMSAT 7           
1 31119U 07012C   26263.17935382  .00000339  00000+0  69975-4 0  9996
2 31119  98.3903 239.3166 0054301 258.6902 100.8196 14.66204455 36353
SAUDICOMSAT 6           
1 31121U 07012E   26262.70417222  .00000407  00000+0  87288-4 0  9998
2 31121  98.4224 232.0370 0072423  33.4271 327.1471 14.62635293 34007
SAUDICOMSAT 5           
1 31124U 07012H   26263.22441620  .00000323  00000+0  64388-4 0  9991
2 31124  98.3615 240.0927 0047088 185.0617 175.0117 14.68259676 37549
SAUDICOMSAT 3           
1 31125U 07012J   26262.67990314  .00000442  00000+0  80256-4 0  9993
2 31125  98.3266 240.0769 0040229 112.4194 248.1281 14.70821183 38715
SAUDICOMSAT 4           
1 31127U 07012L   26263.18874056  .00000382  00000+0  80009-4 0  9995
2 31127  98.4109 237.7547 0062556 322.6736  37.0127 14.64598926 35197
ASTRA 1L                
1 31306U 07016A   26262.98030769 -.00000188  00000+0  00000+0 0  9993
2 31306   1.5592  80.6108 0004859  96.8468 149.8572  1.00272576 45934
GALAXY 17 (G-17)        
1 31307U 07016B   26263.16957293 -.00000210  00000+0  00000+0 0  9991
2 31307   3.2044  78.6309 0003324 125.7602 130.7426  1.00272131 70756
YAOGAN-2                
1 31490U 07019A   26262.36291006  .00000461  00000+0  64044-4 0  9991
2 31490  98.2500 126.0213 0019945 333.3143  26.7041 14.82785920 41579
GLOBALSTAR M069         
1 31573U 07020C   26263.19485852 -.00000057  00000+0  32592-3 0  9995
2 31573  52.0067 343.2173 0001504 354.5677  26.0091 12.23475085890430
GLOBALSTAR M072         
1 31574U 07020D   26262.27193257 -.00000096  00000+0 -17025-3 0  9997
2 31574  51.9920 209.7657 0001334 110.1120  57.3763 11.91659952886192
COSMO-SKYMED 1          
1 31598U 07023A   26263.16521312  .00001769  00000+0  15705-3 0  9991
2 31598  97.8839  95.8468 0001800  82.4681 277.6745 14.97465725 44006
TERRASAR-X              
1 31698U 07026A   26262.44926509  .00000025  00000+0  43892-5 0  9996
2 31698  97.4471 268.8201 0001571  90.6154 269.5261 15.19151780 67537
COSMOS 2428             
1 31792U 07029A   26263.15027556 -.00000016  00000+0  17300-4 0  9992
2 31792  70.9439 155.1169 0011164 322.7030  37.3315 14.12977218991568
SAR-LUPE 2              
1 31797U 07030A   26263.23211358  .00048707  00000+0  53595-3 0  9996
2 31797  98.1094  20.5051 0003663 167.4418 192.6930 15.63014620 71727
WORLDVIEW-1 (WV-1)      
1 32060U 07041A   26263.14085365  .00004181  00000+0  17218-3 0  9999
2 32060  97.3869  21.5296 0001923  88.2320 271.9138 15.24654519 57340
INTELSAT 11 (IS-11)     
1 32253U 07044B   26263.14822058  .00000075  00000+0  00000+0 0  9999
2 32253   3.8054  77.4416 0007587 129.9859 272.9810  0.99046684 69398
WGS F1 (USA 195)        
1 32258U 07046A   26262.27107027 -.00000271  00000+0  00000+0 0  9990
2 32258   0.0135 125.6676 0000566  57.2121 230.3842  1.00272373 53273
NAVSTAR 60 (USA 196)    
1 32260U 07047A   26262.46094800  .00000003  00000+0  00000+0 0  9991
2 32260  54.1706  76.1824 0168996  89.5854 272.3947  2.00551358138706
GLOBALSTAR M066         
1 32265U 07048C   26263.06109447 -.00000101  00000+0 -56970-4 0  9991
2 32265  51.9577 145.5568 0003985 238.9524 268.0412 12.30390837871900
COSMOS 2433 [GLONASS-M] 
1 32275U 07052A   26263.17495690 -.00000027  00000+0  00000+0 0  9991
2 32275  65.5183 312.7330 0005568 227.7862 132.2396  2.13104420147089
YAOGAN-3                
1 32289U 07055A   26263.22679678  .00001018  00000+0  10846-3 0  9998
2 32289  97.8109 292.1602 0001736  89.4957 270.6460 14.91071271 20034
SKYNET 5B               
1 32294U 07056B   26263.06850602  .00000137  00000+0  00000+0 0  9993
2 32294   5.4863  72.3187 0003715 112.4432 223.9604  1.00272490 69140
ASTRA 4A                
1 32299U 07057A   26263.13574051  .00000000  00000+0  00000+0 0  9997
2 32299   0.0115 153.7542 0002459  27.2273 231.7262  1.00269988 52591
COSMO-SKYMED 2          
1 32376U 07059A   26263.14841343  .00000238  00000+0  36492-4 0  9999
2 32376  97.8915  85.3946 0001339  91.3248 268.8119 14.82152411 16078
RADARSAT-2              
1 32382U 07061A   26263.05827800  .00000154  00000+0  76710-4 0  9995
2 32382  98.5828 268.6515 0001255  80.7965 279.3359 14.29983566979513
NAVSTAR 61 (USA 199)    
1 32384U 07062A   26262.44044977  .00000024  00000+0  00000+0 0  9996
2 32384  54.9630 270.3556 0035955 170.2079 305.3937  2.00565342137402
HORIZONS-2              
1 32388U 07063B   26263.17212234 -.00000257  00000+0  00000+0 0  9994
2 32388   2.8396  79.3744 0001437 105.4023 162.4763  1.00271001 68766
COSMOS 2434 [GLONASS-M] 
1 32393U 07065A   26261.11346348  .00000000  00000+0  00000+0 0  9993
2 32393  64.3188 188.7833 0001751  40.2628  67.6000  2.13101315145754
COSMOS 2436 [GLONASS-M] 
1 32395U 07065C   26261.99902510 -.00000007  00000+0  00000+0 0  9998
2 32395  64.3275 188.8269 0017448 359.7210 199.4072  2.13100111145725
THURAYA-3               
1 32404U 08001A   26262.86232512  .00000008  00000+0  00000+0 0  9995
2 32404   6.1483  35.8238 0002348 170.3965 166.7228  1.00271413 68436
THOR 5                  
1 32487U 08006A   26262.92082536 -.00000013  00000+0  00000+0 0  9994
2 32487   0.0224 226.8132 0002376 307.3688 155.3906  1.00272073 68264
AMC-14                  
1 32708U 08011A   26262.83535616 -.00000358  00000+0  00000+0 0  9990
2 32708  24.1188  19.3758 0035117   1.3884  34.2450  1.00437207 69120
NAVSTAR 62 (USA 201)    
1 32711U 08012A   26262.86764536 -.00000017  00000+0  00000+0 0  9995
2 32711  54.5044 146.1407 0211483 248.5888 109.2123  2.00552855135653
DIRECTV 11              
1 32729U 08013A   26263.16601649 -.00000130  00000+0  00000+0 0  9990
2 32729   0.0387   7.3661 0000375  73.9014 238.3957  1.00272666 46541
ICO G1                  
1 32763U 08016A   26263.16766500 -.00000173  00000+0  00000+0 0  9996
2 32763   5.5430  35.8312 0002260 133.9810 156.7827  1.00272725 67495
VINASAT-1               
1 32767U 08018A   26263.01841248  .00000000  00000+0  00000+0 0  9997
2 32767   0.0124 176.5217 0001879  18.0889 302.8859  1.00269638 67544
STAR ONE C2             
1 32768U 08018B   26263.14628243 -.00000281  00000+0  00000+0 0  9992
2 32768   1.4757  81.3764 0002451  86.3703 178.9717  1.00273618 67607
CARTOSAT-2A             
1 32783U 08021A   26263.15010872  .00000259  00000+0  41515-4 0  9992
2 32783  97.7543 308.5757 0012178 155.9689 204.2093 14.79331437992841
CUTE-1.7+APD II (CO-65) 
1 32785U 08021C   26263.21871522  .00003200  00000+0  19982-3 0  9999
2 32785  97.8388 246.7226 0010384  69.6600 290.5743 15.10202048999530
CANX-2                  
1 32790U 08021H   26262.37652270  .00002936  00000+0  20477-3 0  9994
2 32790  97.8747 244.0777 0011661  86.3399 273.9161 15.06167348998982
SEEDS II (CO-66)        
1 32791U 08021J   26262.96547176  .00014057  00000+0  40691-3 0  9995
2 32791  97.7577 265.6353 0002394  30.6292 329.5090 15.35713894  1810
AMOS-3                  
1 32794U 08022A   26263.02247257 -.00000121  00000+0  00000+0 0  9998
2 32794   0.6924  84.6370 0002120  50.1774 310.2245  1.00272854 83282
GALAXY 18 (G-18)        
1 32951U 08024A   26263.15978168  .00000021  00000+0  00000+0 0  9999
2 32951   0.0142 117.8423 0002984  55.1629 120.5843  1.00272892 46808
YUBILEINY (RS30)        
1 32953U 08025A   26263.14309272  .00000034  00000+0  17043-3 0  9998
2 32953  82.5014 296.3825 0020713 104.0952 256.2431 12.43183099831491
COSMOS 2437             
1 32954U 08025B   26263.21198411 -.00000006  00000+0 -11667-3 0  9995
2 32954  82.4999 298.4001 0021629 120.8492 326.3106 12.42760831831171
COSMOS 2438             
1 32955U 08025C   26263.14532860  .00000021  00000+0  76266-4 0  9990
2 32955  82.4992 293.7336 0022490  97.0131 263.3508 12.43370558831637
COSMOS 2439             
1 32956U 08025D   26263.14405038  .00000037  00000+0  19225-3 0  9995
2 32956  82.5049 298.7764 0022055 107.0987 253.2511 12.43071894831510
FENGYUN 3A              
1 32958U 08026A   26263.12901505  .00000035  00000+0  37245-4 0  9997
2 32958  98.6940 202.2056 0008030 208.5119 151.5619 14.19587568948877
ZHONGXING-9             
1 33051U 08028A   26263.08185277 -.00000253  00000+0  00000+0 0  9996
2 33051   1.0041  83.9241 0006385 134.2644 262.6493  1.00274339 66994
FGRST (GLAST)           
1 33053U 08029A   26263.09323762  .00002439  00000+0  83369-4 0  9994
2 33053  25.5821 265.2857 0008013   9.8768 350.1927 15.24371776 10184
SKYNET 5C               
1 33055U 08030A   26263.13132049 -.00000142  00000+0  00000+0 0  9995
2 33055   4.0251  75.8446 0004877 111.9924 200.6992  1.00272892 66907
TURKSAT 3A              
1 33056U 08030B   26262.92931874  .00000142  00000+0  00000+0 0  9994
2 33056   0.0439  80.9990 0004387  77.3203 217.0800  1.00270491 53307
ECHOSTAR 11             
1 33207U 08035A   26263.17738876 -.00000062  00000+0  00000+0 0  9994
2 33207   1.2435  82.9039 0002428  88.5399 141.7128  1.00272445 52164
SUPERBIRD-C2            
1 33274U 08038A   26262.86225286 -.00000310  00000+0  00000+0 0  9998
2 33274   2.5980  79.9945 0005672  71.3420 293.8645  1.00270720106682
INMARSAT 4-F3           
1 33278U 08039A   26263.16666941 -.00000142  00000+0  00000+0 0  9997
2 33278   4.3855  31.7684 0003070 171.1774 118.1487  1.00271474 47497
HUANJING 1A (HJ-1A)     
1 33320U 08041A   26263.23274561  .00000382  00000+0  51723-4 0  9997
2 33320  97.6796 245.4581 0018554 181.7865 178.3287 14.84166398972504
HUANJING 1B (HJ-1B)     
1 33321U 08041B   26263.24588714  .00000387  00000+0  52982-4 0  9990
2 33321  97.6627 248.3495 0034825 230.2010 129.6137 14.83466385972506
GEOEYE 1                
1 33331U 08042A   26263.17873250  .00000204  00000+0  47283-4 0  9992
2 33331  98.1257 335.9624 0005773 113.4975 246.6835 14.64692738964059
NIMIQ 4                 
1 33373U 08044A   26263.19142044 -.00000224  00000+0  00000+0 0  9996
2 33373   0.0325  96.9429 0001948  91.3299 157.7264  1.00269755 65935
GALAXY 19 (G-19)        
1 33376U 08045A   26263.16651669 -.00000143  00000+0  00000+0 0  9995
2 33376   0.0251 235.0253 0002484 306.9365 140.0581  1.00271909 65854
THEOS                   
1 33396U 08049A   26263.15430029 -.00000128  00000+0 -40232-4 0  9995
2 33396  98.5473 317.3079 0001309  87.1022 273.0305 14.20142442931440
SHIJIAN-6 03A (SJ-6 03A)
1 33408U 08053A   26263.19545334  .00002939  00000+0  14828-3 0  9995
2 33408  97.8348 299.8395 0012262  50.3629 309.8684 15.17922397977379
SHIJIAN-6 03B (SJ-6 03B)
1 33409U 08053B   26263.21254752  .00001600  00000+0  11841-3 0  9996
2 33409  97.8555 284.6823 0020453  80.6116 279.7421 15.04512069977030
COSMO-SKYMED 3          
1 33412U 08054A   26263.21225924  .00002120  00000+0  14396-3 0  9996
2 33412  97.8149 123.3327 0014460 308.8353  51.1583 15.07456215971252
SHIYAN-3 (SY-3)         
1 33433U 08056A   26262.88441968  .00000066  00000+0  41782-4 0  9998
2 33433  98.6029 288.4846 0012991 211.6520 148.3883 14.30827238932345
CHUANGXIN 1-02 (CX-1-02)
1 33434U 08056B   26263.23601497  .00000145  00000+0  72764-4 0  9996
2 33434  98.6104 288.5380 0013409 217.6516 142.3728 14.30169309932205
ASTRA 1M                
1 33436U 08057A   26262.71100443  .00000117  00000+0  00000+0 0  9994
2 33436   0.5332  82.5743 0003728  94.2046  97.2154  1.00274924 46689
YAOGAN-4                
1 33446U 08061A   26263.08237271  .00000572  00000+0  76224-4 0  9992
2 33446  97.9331 195.9087 0015446 118.4157 241.8616 14.83348326959733
EUTELSAT HOTBIRD 13C    
1 33459U 08065A   26262.91103198 -.00000286  00000+0  00000+0 0  9998
2 33459   3.1870  77.9874 0003627 103.5565  94.9579  1.00272466 48294
GOSAT (IBUKI)           
1 33492U 09002A   26263.11619494  .00000296  00000+0  60730-4 0  9992
2 33492  98.0963  13.0415 0001571  94.1708 265.9676 14.67534170945383
STARS (KUKAI)           
1 33498U 09002G   26263.12751279  .00002209  00000+0  20095-3 0  9992
2 33498  98.1626 214.3881 0007531 209.2985 150.7813 14.96307268952679
KKS-1 (KISEKI)          
1 33499U 09002H   26263.10743781  .00000870  00000+0  11304-3 0  9995
2 33499  98.1164 187.0497 0007674 353.4641   6.6471 14.83323401950260
EXPRESS-AM44            
1 33595U 09007A   26262.86491435 -.00000092  00000+0  00000+0 0  9999
2 33595   3.6999  77.1691 0003395  93.8252 128.1617  1.00272583 53230
NSS-9                   
1 33749U 09008A   26262.83378263  .00000068  00000+0  00000+0 0  9993
2 33749   1.4989  81.5392 0002159  84.3858 316.0577  1.00273474 64478
TELSTAR 11N             
1 34111U 09009A   26262.41460993 -.00000255  00000+0  00000+0 0  9993
2 34111   0.0169 206.4777 0002518 327.1448 296.4136  1.00270939 47199
NAVSTAR 63 (USA 203)    
1 34661U 09014A   26262.51138696  .00000000  00000+0  00000+0 0  9999
2 34661  54.4706 206.8757 0146367  61.6507 104.5082  2.00569996128170
WGS F2 (USA 204)        
1 34713U 09017A   26262.14834973  .00000000  00000+0  00000+0 0  9990
2 34713   0.0192 155.3321 0000376 338.4802 335.1616  1.00269869 46563
SES-7 (PROTOSTAR 2)     
1 34941U 09027A   26262.87116515 -.00000349  00000+0  00000+0 0  9996
2 34941   0.0558  77.1516 0000828 163.1578 180.3552  1.00270739 63571
MEASAT-3A               
1 35362U 09032A   26262.85642576 -.00000115  00000+0  00000+0 0  9990
2 35362   0.0416 348.0669 0001972 198.8350 280.1768  1.00271576  8987
EWS-G3 (GOES 14)        
1 35491U 09033A   26263.07925274 -.00000088  00000+0  00000+0 0  9997
2 35491   1.9278  81.6949 0002192  91.9116 293.2596  1.00071065  7541
FM-5                    
1 35493U 09034A   26261.98517205 -.00000205  00000+0  00000+0 0  9990
2 35493   0.0362 265.1327 0000751 164.5677 196.7245  1.00273379 47582
TERRESTAR-1             
1 35496U 09035A   26262.89898528 -.00000059  00000+0  00000+0 0  9992
2 35496   5.2295  48.6570 0002285 110.9416  51.8616  1.00273820 63088
COSMOS 2451             
1 35498U 09036A   26263.15230171  .00000012  00000+0  19479-4 0  9992
2 35498  82.4903  33.4147 0006807  12.6113 347.5135 12.40872121779429
COSMOS 2453             
1 35500U 09036C   26263.15806008  .00000045  00000+0  26000-3 0  9997
2 35500  82.4915  28.8844 0006242 326.0316  34.0362 12.41521648779761
DEIMOS-1                
1 35681U 09041A   26263.20924623  .00000481  00000+0  78043-4 0  9992
2 35681  97.7539  56.3961 0000498 137.6978 222.4270 14.75318797920896
DUBAISAT-1              
1 35682U 09041B   26263.18498257  .00000556  00000+0  89586-4 0  9996
2 35682  98.0184  35.4809 0011498 122.3912 237.8412 14.75257123919102
UK-DMC 2                
1 35683U 09041C   26263.19561861  .00000150  00000+0  28884-4 0  9994
2 35683  97.8971  35.9177 0001141  71.3901 288.7432 14.76144918920581
APRIZESAT 4             
1 35684U 09041D   26262.92768972  .00000394  00000+0  53568-4 0  9994
2 35684  98.1340 340.1032 0043494  16.0454 344.2126 14.83994133925418
NANOSAT 1B              
1 35685U 09041E   26263.17727906  .00001074  00000+0  10629-3 0  9991
2 35685  98.1270  24.9297 0048457 210.3669 149.4741 14.93318347928590
APRIZESAT 3             
1 35686U 09041F   26263.18838208  .00001576  00000+0  13927-3 0  9992
2 35686  98.2191  61.0570 0062745 113.0139 247.7715 14.96466671930589
ASIASAT 5               
1 35696U 09042A   26263.01217244 -.00000311  00000+0  00000+0 0  9998
2 35696   0.0094  63.4133 0001720 127.5604 272.8618  1.00270776 62674
NAVSTAR 64 (USA 206)    
1 35752U 09043A   26262.79800720 -.00000078  00000+0  00000+0 0  9993
2 35752  56.2656  23.7437 0051319  86.2347 234.0759  2.00576743125258
JCSAT-12 (JCSAT-RA)     
1 35755U 09044A   26263.01841248 -.00000332  00000+0  00000+0 0  9996
2 35755   0.0345 273.3567 0001969 310.6841 273.5759  1.00270482 62561
OPTUS D3                
1 35756U 09044B   26262.95193884 -.00000150  00000+0  00000+0 0  9993
2 35756   0.8071 267.9291 0004219 268.9429 320.8390  1.00272795 62518
NIMIQ 5                 
1 35873U 09050A   26262.30335838 -.00000261  00000+0  00000+0 0  9999
2 35873   0.0176 198.6538 0002753 337.5624 218.5062  1.00270826 62287
OCEANSAT-2              
1 35931U 09051A   26263.20409602 -.00000102  00000+0 -43691-4 0  9999
2 35931  98.2426 240.6082 0015117 330.5374  29.4939 13.99665853892624
SWISSCUBE               
1 35932U 09051B   26263.19530078  .00000591  00000+0  12601-3 0  9996
2 35932  98.3943 172.7006 0005465 281.7132  78.3455 14.62630664903043
BEESAT-1                
1 35933U 09051C   26262.98121095  .00000495  00000+0  10890-3 0  9999
2 35933  98.3868 171.9170 0004187 302.4264  57.6531 14.61845269903032
ITUPSAT1                
1 35935U 09051E   26263.19243245  .00000456  00000+0  10381-3 0  9999
2 35935  98.3947 171.2198 0006546 311.8089  48.2551 14.60556516902608
AMAZONAS 2              
1 35942U 09054A   26263.16431556 -.00000263  00000+0  00000+0 0  9991
2 35942   2.0535  81.7131 0003305  90.6197 173.8980  1.00271807 62138
COMSATBW-1              
1 35943U 09054B   26262.93347875  .00000020  00000+0  00000+0 0  9996
2 35943   0.0242 156.4415 0003045  28.7097 212.7381  1.00272141 62252
WORLDVIEW-2 (WV-2)      
1 35946U 09055A   26263.14796707  .00000048  00000+0  30250-4 0  9991
2 35946  98.4714 335.2906 0003313 308.6126  51.4764 14.37921106889293
DMSP 5D-3 F18 (USA 210) 
1 35951U 09057A   26263.18169484  .00000148  00000+0  99648-4 0  9996
2 35951  98.9157 243.7949 0010892 347.6312  12.4592 14.14943067873020
NSS-12                  
1 36032U 09058A   26263.07483272  .00000067  00000+0  00000+0 0  9999
2 36032   0.0286  79.2988 0003207  57.9382 305.6869  1.00272703 61861
THOR 6                  
1 36033U 09058B   26262.92082536 -.00000014  00000+0  00000+0 0  9994
2 36033   0.0086 178.0022 0001838   9.6899 141.7989  1.00271277 61959
SMOS                    
1 36036U 09059A   26262.98264521  .00000179  00000+0  71124-4 0  9991
2 36036  98.4434  88.9414 0001276  78.2335 281.8996 14.39767527887096
PROBA-2                 
1 36037U 09059B   26262.73700136  .00000098  00000+0  33410-4 0  9998
2 36037  98.2482  84.8067 0013109 354.3567   5.7481 14.54895045895275
POISK                   
1 36086U 09060A   26263.14255447  .00007470  00000+0  14267-3 0  9999
2 36086  51.6307 190.1401 0004820 160.6694 199.4478 15.49188396586958
